OBJECT_NAME,OBJECT_ID,EPOCH,MEAN_MOTION,ECCENTRICITY,INCLINATION,RA_OF_ASC_NODE,ARG_OF_PERICENTER,MEAN_ANOMALY,EPHEMERIS_TYPE,CLASSIFICATION_TYPE,NORAD_CAT_ID,ELEMENT_SET_NO,REV_AT_EPOCH,BSTAR,MEAN_MOTION_DOT,MEAN_MOTION_DDOT
SL-16 R/B,1994-077B,2026-07-01T06:04:59.609280,14.15578150,.00037653,70.9833,113.5702,314.9795,45.1022,0,U,23405,999,63230,-.1969611E-5,-.52E-6,0
ARIANE 40+ R/B,1995-021B,2026-07-01T10:18:41.955264,14.39841380,.00073504,98.4408,252.2986,152.6710,218.5031,0,U,23561,999,63561,.11288342E-3,.311E-5,0
SL-16 R/B,1995-058B,2026-07-01T11:28:11.440416,14.15511121,.00145893,71.0228,301.3543,300.7628,59.2058,0,U,23705,999,58395,-.86037942E-4,-.216E-5,0
SL-16 R/B,1996-051B,2026-07-01T11:29:05.652096,14.12451057,.0016709,70.7654,294.4038,316.3526,43.6271,0,U,24298,999,53771,.10746956E-3,.149E-5,0
ORBVIEW 2 (SEASTAR),1997-037A,2026-07-01T10:44:39.435360,14.35561034,.0003337,98.8699,349.8627,88.0308,272.1259,0,U,24883,999,52479,.11142425E-3,.274E-5,0
SL-16 R/B,1998-043G,2026-07-01T11:10:24.868704,14.26070907,.00107112,98.8371,136.7481,49.0634,311.1471,0,U,25400,999,45520,.38653072E-4,.47E-6,0
SL-16 R/B,1998-045B,2026-07-01T12:05:16.786464,14.16206425,.00088069,71.0128,302.2208,223.6337,136.4090,0,U,25407,999,44321,.12948738E-3,.209E-5,0
ISS (ZARYA),1998-067A,2026-07-01T12:11:46.289760,15.49503254,.00042241,51.6311,229.1989,255.0896,104.9625,0,U,25544,999,57397,.11826728E-3,.6185E-4,0
CZ-4B R/B,1999-025C,2026-07-01T14:53:22.281792,14.18285869,.00374155,98.6477,224.0953,18.8780,144.7945,0,U,25732,999,40431,.50423618E-4,.62E-6,0
OKEAN-O,1999-039A,2026-07-01T14:36:06.457248,14.80484090,.00011948,97.9310,241.2404,70.3719,289.7622,0,U,25860,999,45124,.85075574E-4,.599E-5,0
SL-16 R/B,1999-039B,2026-07-01T09:56:28.130208,14.81859352,.0013484,97.9832,241.2365,246.1244,113.8556,0,U,25861,999,45370,.80054242E-4,.58E-5,0
DELTA 2 R/B,1999-041E,2026-07-01T11:21:30.517632,14.12044011,.05010759,51.7618,206.7247,324.2378,32.5936,0,U,25876,999,37910,.23570886E-3,.1229E-4,0
HELIOS 1B,1999-064A,2026-07-01T07:11:52.485792,14.88044473,.0002389,98.1601,87.8475,71.5362,288.6113,0,U,25977,999,70215,.18020754E-3,.1597E-4,0
TERRA,1999-068A,2026-07-01T14:57:30.750912,14.61114647,.0002677,97.9449,231.5967,150.7204,10.5658,0,U,25994,999,41171,.98958479E-4,.442E-5,0
SL-16 R/B,2000-006B,2026-07-01T11:28:12.402048,14.15840703,.0016473,71.0012,218.5768,0.2891,359.8239,0,U,26070,999,36466,.6163163E-4,.74E-6,0
TITAN 4B R/B,2000-047B,2026-07-01T13:32:37.157280,15.10275357,.00458633,67.9890,80.1037,272.6170,86.9730,0,U,26474,999,41010,.18260895E-3,.2931E-4,0
ENVISAT,2002-009A,2026-07-01T12:20:10.180608,14.39068086,.0001382,98.3840,133.5133,85.3311,34.0641,0,U,27386,999,27554,.43460657E-4,.91E-6,0
IDEFIX & ARIANE 42P R/B,2002-021B,2026-07-01T06:04:03.029376,14.31088510,.0011043,98.5943,119.5837,208.5183,151.5397,0,U,27422,999,26026,.10497564E-3,.233E-5,0
AQUA,2002-022A,2026-07-01T15:05:44.127744,14.62179869,.00007011,98.4284,152.2010,78.5031,336.3355,0,U,27424,999,28538,.16972185E-3,.805E-5,0
CZ-4B R/B,2002-024C,2026-07-01T14:48:29.865312,14.14566618,.00510484,98.8693,235.3430,60.0936,92.4873,0,U,27432,999,24534,.45670056E-4,.45E-6,0
MIDORI II (ADEOS-II),2002-056A,2026-07-01T11:43:13.836576,14.29357052,.00019653,98.7886,141.8702,57.4382,302.6989,0,U,27597,999,22655,.11333986E-3,.243E-5,0
H-2A R/B,2002-056E,2026-07-01T11:11:53.655072,14.33828282,.00699845,98.3319,138.6210,181.6483,288.6174,0,U,27601,999,23041,.93806212E-4,.226E-5,0
CZ-4B R/B,2003-049C,2026-07-01T11:10:03.244512,14.55108996,.00469989,98.6900,181.8805,243.9242,115.7112,0,U,28059,999,20314,.78644732E-4,.292E-5,0
CZ-2C R/B,2004-012C,2026-07-01T03:41:42.245952,15.81885000,.00109816,97.7074,259.4707,233.5190,126.5067,0,U,28222,999,22210,.74710919E-3,.153431E-2,0
SL-16 R/B,2004-021B,2026-07-01T12:22:48.555264,14.14609909,.00066778,71.0012,353.6167,237.1152,122.9328,0,U,28353,999,13893,.16455907E-3,.269E-5,0
CZ-4B R/B,2004-035C,2026-07-01T02:55:40.526976,15.30819829,.00288661,97.3355,215.0395,285.7630,74.0428,0,U,28415,999,19725,.31269628E-3,.9356E-4,0
CZ-2C R/B,2004-046B,2026-07-01T06:50:28.424544,14.27029840,.01393005,98.1934,90.1842,178.4151,181.7501,0,U,28480,999,12470,.57669397E-4,.115E-5,0
ARIANE 5 R/B,2004-049H,2026-07-01T11:28:03.665280,14.85465748,.00834358,98.2730,355.2835,343.1787,16.6662,0,U,28499,999,16268,.6825128E-4,.56E-5,0
CZ-2D R/B,2005-024B,2026-07-01T11:50:36.471552,15.71177411,.00005947,97.3472,202.6516,341.5903,18.5338,0,U,28738,999,15758,.5455605E-3,.69059E-3,0
ALOS (DAICHI),2006-002A,2026-07-01T10:51:15.039360,14.70079330,.00009208,98.1330,137.9758,61.4288,298.7010,0,U,28931,999,9019,.20368621E-3,.1174E-4,0
