SL-16 R/B               
1 23405U 94077B   26182.25346770 -.00000052  00000+0 -19696-5 0  9998
2 23405  70.9833 113.5702 0003765 314.9795  45.1022 14.15578150632309
ARIANE 40+ R/B          
1 23561U 95021B   26182.42965226  .00000311  00000+0  11288-3 0  9996
2 23561  98.4408 252.2986 0007350 152.6710 218.5031 14.39841380635615
SL-16 R/B               
1 23705U 95058B   26182.47791019 -.00000216  00000+0 -86038-4 0  9990
2 23705  71.0228 301.3543 0014589 300.7628  59.2058 14.15511121583952
SL-16 R/B               
1 24298U 96051B   26182.47853764  .00000149  00000+0  10747-3 0  9994
2 24298  70.7654 294.4038 0016709 316.3526  43.6271 14.12451057537711
ORBVIEW 2 (SEASTAR)     
1 24883U 97037A   26182.44767865  .00000274  00000+0  11142-3 0  9991
2 24883  98.8699 349.8627 0003337  88.0308 272.1259 14.35561034524795
SL-16 R/B               
1 25400U 98043G   26182.46556561  .00000047  00000+0  38653-4 0  9991
2 25400  98.8371 136.7481 0010711  49.0634 311.1471 14.26070907455205
SL-16 R/B               
1 25407U 98045B   26182.50366651  .00000209  00000+0  12949-3 0  9993
2 25407  71.0128 302.2208 0008806 223.6337 136.4090 14.16206425443212
ISS (ZARYA)             
1 25544U 98067A   26182.50817465  .00006185  00000+0  11827-3 0  9996
2 25544  51.6311 229.1989 0004224 255.0896 104.9625 15.49503254573972
CZ-4B R/B               
1 25732U 99025C   26182.62039678  .00000062  00000+0  50424-4 0  9990
2 25732  98.6477 224.0953 0037415  18.8780 144.7945 14.18285869404317
OKEAN-O                 
1 25860U 99039A   26182.60840807  .00000599  00000+0  85076-4 0  9995
2 25860  97.9310 241.2404 0001194  70.3719 289.7622 14.80484090451241
SL-16 R/B               
1 25861U 99039B   26182.41421447  .00000580  00000+0  80054-4 0  9991
2 25861  97.9832 241.2365 0013484 246.1244 113.8556 14.81859352453702
DELTA 2 R/B             
1 25876U 99041E   26182.47326988  .00001229  00000+0  23571-3 0  9991
2 25876  51.7618 206.7247 0501075 324.2378  32.5936 14.12044011379109
HELIOS 1B               
1 25977U 99064A   26182.29991303  .00001597  00000+0  18021-3 0  9999
2 25977  98.1601  87.8475 0002389  71.5362 288.6113 14.88044473702159
TERRA                   
1 25994U 99068A   26182.62327258  .00000442  00000+0  98958-4 0  9997
2 25994  97.9449 231.5967 0002677 150.7204  10.5658 14.61114647411711
SL-16 R/B               
1 26070U 00006B   26182.47792132  .00000074  00000+0  61632-4 0  9997
2 26070  71.0012 218.5768 0016473   0.2891 359.8239 14.15840703364663
TITAN 4B R/B            
1 26474U 00047B   26182.56431895  .00002931  00000+0  18261-3 0  9999
2 26474  67.9890  80.1037 0045863 272.6170  86.9730 15.10275357410109
ENVISAT                 
1 27386U 02009A   26182.51400672  .00000091  00000+0  43461-4 0  9992
2 27386  98.3840 133.5133 0001382  85.3311  34.0641 14.39068086275540
IDEFIX & ARIANE 42P R/B 
1 27422U 02021B   26182.25281284  .00000233  00000+0  10498-3 0  9995
2 27422  98.5943 119.5837 0011043 208.5183 151.5397 14.31088510260265
AQUA                    
1 27424U 02022A   26182.62898296  .00000805  00000+0  16972-3 0  9994
2 27424  98.4284 152.2010 0000701  78.5031 336.3355 14.62179869285386
CZ-4B R/B               
1 27432U 02024C   26182.61701233  .00000045  00000+0  45670-4 0  9992
2 27432  98.8693 235.3430 0051048  60.0936  92.4873 14.14566618245348
MIDORI II (ADEOS-II)    
1 27597U 02056A   26182.48835459  .00000243  00000+0  11334-3 0  9991
2 27597  98.7886 141.8702 0001965  57.4382 302.6989 14.29357052226556
H-2A R/B                
1 27601U 02056E   26182.46659323  .00000226  00000+0  93806-4 0  9995
2 27601  98.3319 138.6210 0069984 181.6483 288.6174 14.33828282230416
CZ-4B R/B               
1 28059U 03049C   26182.46531533  .00000292  00000+0  78645-4 0  9995
2 28059  98.6900 181.8805 0046998 243.9242 115.7112 14.55108996203147
CZ-2C R/B               
1 28222U 04012C   26182.15396118  .00153431  00000+0  74711-3 0  9995
2 28222  97.7074 259.4707 0010981 233.5190 126.5067 15.81885000222108
SL-16 R/B               
1 28353U 04021B   26182.51583976  .00000269  00000+0  16456-3 0  9992
2 28353  71.0012 353.6167 0006677 237.1152 122.9328 14.14609909138936
CZ-4B R/B               
1 28415U 04035C   26182.12199684  .00009356  00000+0  31270-3 0  9999
2 28415  97.3355 215.0395 0028866 285.7630  74.0428 15.30819829197255
CZ-2C R/B               
1 28480U 04046B   26182.28505121  .00000115  00000+0  57669-4 0  9992
2 28480  98.1934  90.1842 0139300 178.4151 181.7501 14.27029840124709
ARIANE 5 R/B            
1 28499U 04049H   26182.47782020  .00000560  00000+0  68251-4 0  9994
2 28499  98.2730 355.2835 0083435 343.1787  16.6662 14.85465748162682
CZ-2D R/B               
1 28738U 05024B   26182.49347768  .00069059  00000+0  54556-3 0  9992
2 28738  97.3472 202.6516 0000594 341.5903  18.5338 15.71177411157586
ALOS (DAICHI)           
1 28931U 06002A   26182.45225740  .00001174  00000+0  20369-3 0  9994
2 28931  98.1330 137.9758 0000920  61.4288 298.7010 14.70079330 90199
